{
  "type": "FeatureCollection",
  "features": [
    {
      "type": "Feature",
      "properties": {
        "norad_id": 36585,
        "name": "GPS BIIF-1  (PRN 25)",
        "group": "gnss",
        "lat": -54.142291279004496,
        "lon": 119.84460997870556,
        "alt_km": 20501.42180040363,
        "timestamp": "2025-12-24T07:45:06.442479+00:00",
        "meta_object_name": "GPS BIIF-1  (PRN 25)",
        "meta_object_id": "2010-022A",
        "meta_epoch": "2025-12-23T05:44:03.055200",
        "meta_mean_motion": 2.00553739,
        "meta_eccentricity": 0.01265225,
        "meta_inclination": 54.2985,
        "meta_ra_of_asc_node": 215.6505,
        "meta_arg_of_pericenter": 65.2085,
        "meta_mean_anomaly": 139.2805,
        "meta_ephemeris_type": 0,
        "meta_classification_type": "U",
        "meta_norad_cat_id": 36585,
        "meta_element_set_no": 999,
        "meta_rev_at_epoch": 11406,
        "meta_bstar": 0,
        "meta_mean_motion_dot": 7.2e-07,
        "meta_mean_motion_ddot": 0,
        "tle_line1": "1 36585U 10022A   25357.23892425  .00000072  00000+0  00000+0 0  9996",
        "tle_line2": "2 36585  54.2985 215.6505 0126522  65.2085 139.2805  2.00553739114064"
      },
      "geometry": {
        "type": "Point",
        "coordinates": [
          119.84460997870556,
          -54.142291279004496
        ]
      }
    },
    {
      "type": "Feature",
      "properties": {
        "norad_id": 36828,
        "name": "BEIDOU-2 IGSO-1 (C06)",
        "group": "gnss",
        "lat": 22.07114795603853,
        "lon": -32.44735583740039,
        "alt_km": 35680.89789127905,
        "timestamp": "2025-12-24T07:45:06.442491+00:00",
        "meta_object_name": "BEIDOU-2 IGSO-1 (C06)",
        "meta_object_id": "2010-036A",
        "meta_epoch": "2025-12-20T21:47:26.739168",
        "meta_mean_motion": 1.00282395,
        "meta_eccentricity": 0.0051798,
        "meta_inclination": 54.2882,
        "meta_ra_of_asc_node": 164.5739,
        "meta_arg_of_pericenter": 215.2932,
        "meta_mean_anomaly": 144.6604,
        "meta_ephemeris_type": 0,
        "meta_classification_type": "U",
        "meta_norad_cat_id": 36828,
        "meta_element_set_no": 999,
        "meta_rev_at_epoch": 5631,
        "meta_bstar": 0,
        "meta_mean_motion_dot": -5.5e-07,
        "meta_mean_motion_ddot": 0,
        "tle_line1": "1 36828U 10036A   25354.90794837 -.00000055  00000+0  00000+0 0  9992",
        "tle_line2": "2 36828  54.2882 164.5739 0051798 215.2932 144.6604  1.00282395 56317"
      },
      "geometry": {
        "type": "Point",
        "coordinates": [
          -32.44735583740039,
          22.07114795603853
        ]
      }
    },
    {
      "type": "Feature",
      "properties": {
        "norad_id": 37210,
        "name": "BEIDOU-2 G4 (C04)",
        "group": "gnss",
        "lat": -2.7932471263436467,
        "lon": 9.611966000435878,
        "alt_km": 35798.49515360139,
        "timestamp": "2025-12-24T07:45:06.442508+00:00",
        "meta_object_name": "BEIDOU-2 G4 (C04)",
        "meta_object_id": "2010-057A",
        "meta_epoch": "2025-12-23T20:44:30.710976",
        "meta_mean_motion": 1.00271714,
        "meta_eccentricity": 0.00104108,
        "meta_inclination": 3.2104,
        "meta_ra_of_asc_node": 69.8962,
        "meta_arg_of_pericenter": 193.6802,
        "meta_mean_anomaly": 300.2845,
        "meta_ephemeris_type": 0,
        "meta_classification_type": "U",
        "meta_norad_cat_id": 37210,
        "meta_element_set_no": 999,
        "meta_rev_at_epoch": 5553,
        "meta_bstar": 0,
        "meta_mean_motion_dot": -9.2e-07,
        "meta_mean_motion_ddot": 0,
        "tle_line1": "1 37210U 10057A   25357.86424434 -.00000092  00000+0  00000+0 0  9993",
        "tle_line2": "2 37210   3.2104  69.8962 0010410 193.6802 300.2845  1.00271714 55533"
      },
      "geometry": {
        "type": "Point",
        "coordinates": [
          9.611966000435878,
          -2.7932471263436467
        ]
      }
    },
    {
      "type": "Feature",
      "properties": {
        "norad_id": 37256,
        "name": "BEIDOU-2 IGSO-2 (C07)",
        "group": "gnss",
        "lat": 30.576239588161297,
        "lon": -53.72759434021325,
        "alt_km": 35982.79881406225,
        "timestamp": "2025-12-24T07:45:06.442530+00:00",
        "meta_object_name": "BEIDOU-2 IGSO-2 (C07)",
        "meta_object_id": "2010-068A",
        "meta_epoch": "2025-12-23T17:03:51.690816",
        "meta_mean_motion": 1.00283101,
        "meta_eccentricity": 0.00485637,
        "meta_inclination": 47.8659,
        "meta_ra_of_asc_node": 274.0149,
        "meta_arg_of_pericenter": 216.3394,
        "meta_mean_anomaly": 326.1369,
        "meta_ephemeris_type": 0,
        "meta_classification_type": "U",
        "meta_norad_cat_id": 37256,
        "meta_element_set_no": 999,
        "meta_rev_at_epoch": 5503,
        "meta_bstar": 0,
        "meta_mean_motion_dot": -1.88e-06,
        "meta_mean_motion_ddot": 0,
        "tle_line1": "1 37256U 10068A   25357.71101494 -.00000188  00000+0  00000+0 0  9993",
        "tle_line2": "2 37256  47.8659 274.0149 0048563 216.3394 326.1369  1.00283101 55034"
      },
      "geometry": {
        "type": "Point",
        "coordinates": [
          -53.72759434021325,
          30.576239588161297
        ]
      }
    },
    {
      "type": "Feature",
      "properties": {
        "norad_id": 37384,
        "name": "BEIDOU-2 IGSO-3 (C08)",
        "group": "gnss",
        "lat": -61.7180417860044,
        "lon": -37.23136276407693,
        "alt_km": 35786.53766403505,
        "timestamp": "2025-12-24T07:45:06.442545+00:00",
        "meta_object_name": "BEIDOU-2 IGSO-3 (C08)",
        "meta_object_id": "2011-013A",
        "meta_epoch": "2025-12-23T13:38:13.451136",
        "meta_mean_motion": 1.00268394,
        "meta_eccentricity": 0.00353473,
        "meta_inclination": 62.1571,
        "meta_ra_of_asc_node": 41.8137,
        "meta_arg_of_pericenter": 187.6149,
        "meta_mean_anomaly": 174.7745,
        "meta_ephemeris_type": 0,
        "meta_classification_type": "U",
        "meta_norad_cat_id": 37384,
        "meta_element_set_no": 999,
        "meta_rev_at_epoch": 5390,
        "meta_bstar": 0,
        "meta_mean_motion_dot": -1.6e-06,
        "meta_mean_motion_ddot": 0,
        "tle_line1": "1 37384U 11013A   25357.56821124 -.00000160  00000+0  00000+0 0  9998",
        "tle_line2": "2 37384  62.1571  41.8137 0035347 187.6149 174.7745  1.00268394 53906"
      },
      "geometry": {
        "type": "Point",
        "coordinates": [
          -37.23136276407693,
          -61.7180417860044
        ]
      }
    },
    {
      "type": "Feature",
      "properties": {
        "norad_id": 37605,
        "name": "GSAT-8 (GAGAN/PRN 127)",
        "group": "gnss",
        "lat": -0.03139079136088766,
        "lon": -95.57046667945762,
        "alt_km": 35748.539862256745,
        "timestamp": "2025-12-24T07:45:06.442558+00:00",
        "meta_object_name": "GSAT-8 (GAGAN/PRN 127)",
        "meta_object_id": "2011-022A",
        "meta_epoch": "2025-12-23T21:57:16.242912",
        "meta_mean_motion": 1.00271302,
        "meta_eccentricity": 0.00089337,
        "meta_inclination": 1.6768,
        "meta_ra_of_asc_node": 84.078,
        "meta_arg_of_pericenter": 186.0621,
        "meta_mean_anomaly": 206.9433,
        "meta_ephemeris_type": 0,
        "meta_classification_type": "U",
        "meta_norad_cat_id": 37605,
        "meta_element_set_no": 999,
        "meta_rev_at_epoch": 5146,
        "meta_bstar": 0,
        "meta_mean_motion_dot": 1.05e-06,
        "meta_mean_motion_ddot": 0,
        "tle_line1": "1 37605U 11022A   25357.91477133  .00000105  00000+0  00000+0 0  9998",
        "tle_line2": "2 37605   1.6768  84.0780 0008933 186.0621 206.9433  1.00271302 51464"
      },
      "geometry": {
        "type": "Point",
        "coordinates": [
          -95.57046667945762,
          -0.03139079136088766
        ]
      }
    },
    {
      "type": "Feature",
      "properties": {
        "norad_id": 37763,
        "name": "BEIDOU-2 IGSO-4 (C09)",
        "group": "gnss",
        "lat": 35.02566609914355,
        "lon": -42.718333958416856,
        "alt_km": 35824.97032485764,
        "timestamp": "2025-12-24T07:45:06.442570+00:00",
        "meta_object_name": "BEIDOU-2 IGSO-4 (C09)",
        "meta_object_id": "2011-038A",
        "meta_epoch": "2025-12-21T10:06:26.864064",
        "meta_mean_motion": 1.00280083,
        "meta_eccentricity": 0.01491557,
        "meta_inclination": 54.5854,
        "meta_ra_of_asc_node": 167.2693,
        "meta_arg_of_pericenter": 230.0944,
        "meta_mean_anomaly": 299.1265,
        "meta_ephemeris_type": 0,
        "meta_classification_type": "U",
        "meta_norad_cat_id": 37763,
        "meta_element_set_no": 999,
        "meta_rev_at_epoch": 5286,
        "meta_bstar": 0,
        "meta_mean_motion_dot": 5.9e-07,
        "meta_mean_motion_ddot": 0,
        "tle_line1": "1 37763U 11038A   25355.42114426  .00000059  00000+0  00000+0 0  9995",
        "tle_line2": "2 37763  54.5854 167.2693 0149155 230.0944 299.1265  1.00280083 52867"
      },
      "geometry": {
        "type": "Point",
        "coordinates": [
          -42.718333958416856,
          35.02566609914355
        ]
      }
    }
  ]
}